{
  "type": "FeatureCollection",
  "features": [
    {
      "type": "Feature",
      "properties": {
        "norad_id": 40362,
        "name": "YAOGAN-26",
        "group": "resource",
        "lat": 62.56363981413355,
        "lon": 171.59680119987743,
        "alt_km": 441.2157277529959,
        "timestamp": "2025-12-02T17:49:11.682851+00:00",
        "meta_object_name": "YAOGAN-26",
        "meta_object_id": "2014-088A",
        "meta_epoch": "2025-12-02T12:38:01.307328",
        "meta_mean_motion": 15.38744484,
        "meta_eccentricity": 0.0007396,
        "meta_inclination": 97.0641,
        "meta_ra_of_asc_node": 337.569,
        "meta_arg_of_pericenter": 57.2991,
        "meta_mean_anomaly": 302.8967,
        "meta_ephemeris_type": 0,
        "meta_classification_type": "U",
        "meta_norad_cat_id": 40362,
        "meta_element_set_no": 999,
        "meta_rev_at_epoch": 60737,
        "meta_bstar": 0.00057344,
        "meta_mean_motion_dot": 0.00021935,
        "meta_mean_motion_ddot": 0,
        "tle_line1": "1 40362U 14088A   25336.52640402  .00021935  00000+0  57344-3 0  9993",
        "tle_line2": "2 40362  97.0641 337.5690 0007396  57.2991 302.8967 15.38744484607371"
      },
      "geometry": {
        "type": "Point",
        "coordinates": [
          171.59680119987743,
          62.56363981413355
        ]
      }
    },
    {
      "type": "Feature",
      "properties": {
        "norad_id": 40376,
        "name": "SMAP",
        "group": "resource",
        "lat": -24.54591151836707,
        "lon": 157.86764419988333,
        "alt_km": 688.4445702813528,
        "timestamp": "2025-12-02T17:49:11.682861+00:00",
        "meta_object_name": "SMAP",
        "meta_object_id": "2015-003A",
        "meta_epoch": "2025-12-02T11:57:51.150816",
        "meta_mean_motion": 14.6332379,
        "meta_eccentricity": 0.0001203,
        "meta_inclination": 98.129,
        "meta_ra_of_asc_node": 341.3699,
        "meta_arg_of_pericenter": 85.7767,
        "meta_mean_anomaly": 274.3572,
        "meta_ephemeris_type": 0,
        "meta_classification_type": "U",
        "meta_norad_cat_id": 40376,
        "meta_element_set_no": 999,
        "meta_rev_at_epoch": 57885,
        "meta_bstar": 0.00016156,
        "meta_mean_motion_dot": 7.87e-06,
        "meta_mean_motion_ddot": 0,
        "tle_line1": "1 40376U 15003A   25336.49850869  .00000787  00000+0  16156-3 0  9990",
        "tle_line2": "2 40376  98.1290 341.3699 0001203  85.7767 274.3572 14.63323790578853"
      },
      "geometry": {
        "type": "Point",
        "coordinates": [
          157.86764419988333,
          -24.54591151836707
        ]
      }
    },
    {
      "type": "Feature",
      "properties": {
        "norad_id": 40536,
        "name": "KOMPSAT-3A",
        "group": "resource",
        "lat": -68.43525527486553,
        "lon": 110.5850554436949,
        "alt_km": 443.90379070642393,
        "timestamp": "2025-12-02T17:49:11.682871+00:00",
        "meta_object_name": "KOMPSAT-3A",
        "meta_object_id": "2015-014A",
        "meta_epoch": "2025-12-02T12:04:23.381760",
        "meta_mean_motion": 15.43377927,
        "meta_eccentricity": 0.0003651,
        "meta_inclination": 97.6771,
        "meta_ra_of_asc_node": 310.2898,
        "meta_arg_of_pericenter": 148.8706,
        "meta_mean_anomaly": 211.2757,
        "meta_ephemeris_type": 0,
        "meta_classification_type": "U",
        "meta_norad_cat_id": 40536,
        "meta_element_set_no": 999,
        "meta_rev_at_epoch": 59137,
        "meta_bstar": 0.00051281,
        "meta_mean_motion_dot": 0.00022838,
        "meta_mean_motion_ddot": 0,
        "tle_line1": "1 40536U 15014A   25336.50304840  .00022838  00000+0  51281-3 0  9994",
        "tle_line2": "2 40536  97.6771 310.2898 0003651 148.8706 211.2757 15.43377927591375"
      },
      "geometry": {
        "type": "Point",
        "coordinates": [
          110.5850554436949,
          -68.43525527486553
        ]
      }
    },
    {
      "type": "Feature",
      "properties": {
        "norad_id": 40697,
        "name": "SENTINEL-2A",
        "group": "resource",
        "lat": 18.427431462373736,
        "lon": -127.7024954646211,
        "alt_km": 788.9698582287392,
        "timestamp": "2025-12-02T17:49:11.682881+00:00",
        "meta_object_name": "SENTINEL-2A",
        "meta_object_id": "2015-028A",
        "meta_epoch": "2025-12-02T12:02:01.963104",
        "meta_mean_motion": 14.30820689,
        "meta_eccentricity": 0.0001046,
        "meta_inclination": 98.5703,
        "meta_ra_of_asc_node": 49.1798,
        "meta_arg_of_pericenter": 93.9661,
        "meta_mean_anomaly": 266.1642,
        "meta_ephemeris_type": 0,
        "meta_classification_type": "U",
        "meta_norad_cat_id": 40697,
        "meta_element_set_no": 999,
        "meta_rev_at_epoch": 54560,
        "meta_bstar": 0.00010264,
        "meta_mean_motion_dot": 2.25e-06,
        "meta_mean_motion_ddot": 0,
        "tle_line1": "1 40697U 15028A   25336.50141161  .00000225  00000+0  10264-3 0  9994",
        "tle_line2": "2 40697  98.5703  49.1798 0001046  93.9661 266.1642 14.30820689545601"
      },
      "geometry": {
        "type": "Point",
        "coordinates": [
          -127.7024954646211,
          18.427431462373736
        ]
      }
    },
    {
      "type": "Feature",
      "properties": {
        "norad_id": 40701,
        "name": "GAOFEN-8",
        "group": "resource",
        "lat": -52.91060247104012,
        "lon": 164.69630960971844,
        "alt_km": 464.2012053473072,
        "timestamp": "2025-12-02T17:49:11.682891+00:00",
        "meta_object_name": "GAOFEN-8",
        "meta_object_id": "2015-030A",
        "meta_epoch": "2025-12-02T13:22:07.304736",
        "meta_mean_motion": 15.38010733,
        "meta_eccentricity": 0.0011163,
        "meta_inclination": 97.6906,
        "meta_ra_of_asc_node": 154.2052,
        "meta_arg_of_pericenter": 174.0263,
        "meta_mean_anomaly": 186.1116,
        "meta_ephemeris_type": 0,
        "meta_classification_type": "U",
        "meta_norad_cat_id": 40701,
        "meta_element_set_no": 999,
        "meta_rev_at_epoch": 58114,
        "meta_bstar": 0.00061638,
        "meta_mean_motion_dot": 0.0002305,
        "meta_mean_motion_ddot": 0,
        "tle_line1": "1 40701U 15030A   25336.55702899  .00023050  00000+0  61638-3 0  9991",
        "tle_line2": "2 40701  97.6906 154.2052 0011163 174.0263 186.1116 15.38010733581149"
      },
      "geometry": {
        "type": "Point",
        "coordinates": [
          164.69630960971844,
          -52.91060247104012
        ]
      }
    },
    {
      "type": "Feature",
      "properties": {
        "norad_id": 40718,
        "name": "CARBONITE 1 (CBNT-1)",
        "group": "resource",
        "lat": 73.43686249077686,
        "lon": 131.39784521231533,
        "alt_km": 621.2928851281413,
        "timestamp": "2025-12-02T17:49:11.682901+00:00",
        "meta_object_name": "CARBONITE 1 (CBNT-1)",
        "meta_object_id": "2015-032D",
        "meta_epoch": "2025-12-02T12:37:18.242976",
        "meta_mean_motion": 14.82664906,
        "meta_eccentricity": 0.0013789,
        "meta_inclination": 97.6401,
        "meta_ra_of_asc_node": 158.02,
        "meta_arg_of_pericenter": 216.0725,
        "meta_mean_anomaly": 143.956,
        "meta_ephemeris_type": 0,
        "meta_classification_type": "U",
        "meta_norad_cat_id": 40718,
        "meta_element_set_no": 999,
        "meta_rev_at_epoch": 56019,
        "meta_bstar": 0.00043691,
        "meta_mean_motion_dot": 3.478e-05,
        "meta_mean_motion_ddot": 0,
        "tle_line1": "1 40718U 15032D   25336.52590559  .00003478  00000+0  43691-3 0  9997",
        "tle_line2": "2 40718  97.6401 158.0200 0013789 216.0725 143.9560 14.82664906560191"
      },
      "geometry": {
        "type": "Point",
        "coordinates": [
          131.39784521231533,
          73.43686249077686
        ]
      }
    },
    {
      "type": "Feature",
      "properties": {
        "norad_id": 40878,
        "name": "YAOGAN-27",
        "group": "resource",
        "lat": 1.49021896151356,
        "lon": -33.4506601330308,
        "alt_km": 1198.5752428757296,
        "timestamp": "2025-12-02T17:49:11.682911+00:00",
        "meta_object_name": "YAOGAN-27",
        "meta_object_id": "2015-040A",
        "meta_epoch": "2025-12-02T12:20:19.362336",
        "meta_mean_motion": 13.16059631,
        "meta_eccentricity": 0.0007756,
        "meta_inclination": 100.1003,
        "meta_ra_of_asc_node": 326.597,
        "meta_arg_of_pericenter": 311.8966,
        "meta_mean_anomaly": 48.1486,
        "meta_ephemeris_type": 0,
        "meta_classification_type": "U",
        "meta_norad_cat_id": 40878,
        "meta_element_set_no": 999,
        "meta_rev_at_epoch": 49179,
        "meta_bstar": 5.539e-05,
        "meta_mean_motion_dot": -2.1e-07,
        "meta_mean_motion_ddot": 0,
        "tle_line1": "1 40878U 15040A   25336.51411299 -.00000021  00000+0  55390-4 0  9997",
        "tle_line2": "2 40878 100.1003 326.5970 0007756 311.8966  48.1486 13.16059631491791"
      },
      "geometry": {
        "type": "Point",
        "coordinates": [
          -33.4506601330308,
          1.49021896151356
        ]
      }
    }
  ]
}